*******************************************************************************
JPL/HORIZONS               818 Kapteynia (A916 DF)         2023-Sep-04 11:08:33
Rec #:     818 (+COV) Soln.date: 2023-Aug-24_19:44:28   # obs: 3933 (1916-2023)
 
IAU76/J2000 helio. ecliptic osc. elements (au, days, deg., period=Julian yrs):
 
  EPOCH=  2457233.5 ! 2015-Jul-30.00 (TDB)         Residual RMS= .2713
   EC= .09485908871204368  QR= 2.869411070061212   TP= 2457381.3416582607
   OM= 70.82520361422418   W=  293.1979207440874   IN= 15.66232118786188
   A= 3.170126368476957    MA= 334.1841732859847   ADIST= 3.470841666892702
   PER= 5.64447            N= .174618081           ANGMOM= .030489966
   DAN= 3.02844            DDN= 3.26355            L= 4.8182743
   B= -14.3674948          MOID= 1.91363001        TP= 2015-Dec-24.8416582607
 
Asteroid physical parameters (km, seconds, rotational period in hours):
   GM= n.a.                RAD= 32.1275            ROTPER= 16.35
   H= 9.31                 G= .150                 B-V= n.a.
                           ALBEDO= .100            STYP= n.a.

ASTEROID comments: 
1: soln ref.= JPL#58, OCC=0
2: source=ORB
*******************************************************************************


*******************************************************************************
Ephemeris / API_USER Mon Sep  4 11:08:33 2023 Pasadena, USA      / Horizons
*******************************************************************************
Target body name: 818 Kapteynia (A916 DF)         {source: JPL#58}
Center body name: Solar System Barycenter (0)     {source: DE441}
Center-site name: BODY CENTER
*******************************************************************************
Start time      : A.D. 2023-Aug-12 00:00:00.0000 TDB
Stop  time      : A.D. 2023-Aug-13 00:00:00.0000 TDB
Step-size       : 2880 minutes
*******************************************************************************
Center geodetic : 0.0, 0.0, 0.0                   {E-lon(deg),Lat(deg),Alt(km)}
Center cylindric: 0.0, 0.0, 0.0                   {E-lon(deg),Dxy(km),Dz(km)}
Center radii    : (undefined)
Small perturbers: Yes                             {source: SB441-N16}
Output units    : KM-S
Calendar mode   : Mixed Julian/Gregorian
Output type     : GEOMETRIC cartesian states
Output format   : 2 (position and velocity)
Reference frame : Ecliptic of J2000.0
*******************************************************************************
Initial IAU76/J2000 heliocentric ecliptic osculating elements (au, days, deg.):
  EPOCH=  2457233.5 ! 2015-Jul-30.00 (TDB)         Residual RMS= .2713         
   EC= .09485908871204368  QR= 2.869411070061212   TP= 2457381.3416582607      
   OM= 70.82520361422418   W=  293.1979207440874   IN= 15.66232118786188       
  Equivalent ICRF heliocentric cartesian coordinates (au, au/d):
   X= 2.486105498577031E+00  Y=-8.723766285227714E-01  Z=-1.225062613312287E+00
  VX= 4.319660702675195E-03 VY= 8.885992729077181E-03 VZ= 3.566427517904427E-03
Asteroid physical parameters (km, seconds, rotational period in hours):        
   GM= n.a.                RAD= 32.1275            ROTPER= 16.35               
   H= 9.31                 G= .150                 B-V= n.a.                   
                           ALBEDO= .100            STYP= n.a.                  
*******************************************************************************
JDTDB
   X     Y     Z
   VX    VY    VZ
*******************************************************************************
$$SOE
2460168.500000000 = A.D. 2023-Aug-12 00:00:00.0000 TDB 
 X =-3.597689438837856E+08 Y = 3.296403688202478E+08 Z = 1.252338037983172E+08
 VX=-1.101928873604424E+01 VY=-1.109436439512271E+01 VZ= 1.884668407862850E+00
$$EOE
*******************************************************************************
 
TIME

  Barycentric Dynamical Time ("TDB" or T_eph) output was requested. This
continuous coordinate time is equivalent to the relativistic proper time
of a clock at rest in a reference frame co-moving with the solar system
barycenter but outside the system's gravity well. It is the independent
variable in the solar system relativistic equations of motion.

  TDB runs at a uniform rate of one SI second per second and is independent
of irregularities in Earth's rotation.
 
CALENDAR SYSTEM

  Mixed calendar mode was active such that calendar dates after AD 1582-Oct-15
(if any) are in the modern Gregorian system. Dates prior to 1582-Oct-5 (if any)
are in the Julian calendar system, which is automatically extended for dates
prior to its adoption on 45-Jan-1 BC.  The Julian calendar is useful for
matching historical dates. The Gregorian calendar more accurately corresponds
to the Earth's orbital motion and seasons. A "Gregorian-only" calendar mode is
available if such physical events are the primary interest.

REFERENCE FRAME AND COORDINATES

  Ecliptic at the standard reference epoch

    Reference epoch: J2000.0
    X-Y plane: adopted Earth orbital plane at the reference epoch
               Note: IAU76 obliquity of 84381.448 arcseconds wrt ICRF X-Y plane
    X-axis   : ICRF
    Z-axis   : perpendicular to the X-Y plane in the directional (+ or -) sense
               of Earth's north pole at the reference epoch.

  Symbol meaning:

    JDTDB    Julian Day Number, Barycentric Dynamical Time
      X      X-component of position vector (km)
      Y      Y-component of position vector (km)
      Z      Z-component of position vector (km)
      VX     X-component of velocity vector (km/sec)                           
      VY     Y-component of velocity vector (km/sec)                           
      VZ     Z-component of velocity vector (km/sec)                           

ABERRATIONS AND CORRECTIONS

 Geometric state vectors have NO corrections or aberrations applied.

Computations by ...

    Solar System Dynamics Group, Horizons On-Line Ephemeris System
    4800 Oak Grove Drive, Jet Propulsion Laboratory
    Pasadena, CA  91109   USA

    General site: https://ssd.jpl.nasa.gov/
    Mailing list: https://ssd.jpl.nasa.gov/email_list.html
    System news : https://ssd.jpl.nasa.gov/horizons/news.html
    User Guide  : https://ssd.jpl.nasa.gov/horizons/manual.html
    Connect     : browser        https://ssd.jpl.nasa.gov/horizons/app.html#/x
                  API            https://ssd-api.jpl.nasa.gov/doc/horizons.html
                  command-line   telnet ssd.jpl.nasa.gov 6775
                  e-mail/batch   https://ssd.jpl.nasa.gov/ftp/ssd/hrzn_batch.txt
                  scripts        https://ssd.jpl.nasa.gov/ftp/ssd/SCRIPTS
    Author      : Jon.D.Giorgini@jpl.nasa.gov
*******************************************************************************
